COMMENT,ORIGINATOR,NORAD_CAT_ID,OBJECT_NAME,OBJECT_TYPE,CLASSIFICATION_TYPE,INTLDES,EPOCH,EPOCH_MICROSECONDS,MEAN_MOTION,ECCENTRICITY,INCLINATION,RA_OF_ASC_NODE,ARG_OF_PERICENTER,MEAN_ANOMALY,EPHEMERIS_TYPE,ELEMENT_SET_NO,REV_AT_EPOCH,BSTAR,MEAN_MOTION_DOT,MEAN_MOTION_DDOT,FILE,TLE_LINE0,TLE_LINE1,TLE_LINE2,OBJECT_ID,OBJECT_NUMBER,SEMIMAJOR_AXIS,PERIOD,APOGEE,PERIGEE,DECAYED
"GENERATED VIA SPACETRACK.ORG API","18 SPCS","55096","SPACEBEE-161","PAYLOAD","U","23001CR","2024-05-26 16:47:30","69312","15.46109872","0.001041","97.42","213.5881","215.1653","144.891","0","999","7776","0.0012856","0.00063402","0","4328412","0 SPACEBEE-161","1 55096U 23001CR  24147.69965358  .00063402  00000-0  12856-2 0  9999","2 55096  97.4200 213.5881 0010410 215.1653 144.8910 15.46109872 77763","2023-001CR","55096","6806.256","93.137","435.206","421.036","0"
"GENERATED VIA SPACETRACK.ORG API","18 SPCS","55096","SPACEBEE-161","PAYLOAD","U","23001CR","2024-05-27 03:39:52","426368","15.46171189","0.0010531","97.42","214.0516","213.5322","146.5261","0","999","7783","0.001351","0.00066804","0","4328615","0 SPACEBEE-161","1 55096U 23001CR  24148.15269012  .00066804  00000-0  13510-2 0  9992","2 55096  97.4200 214.0516 0010531 213.5322 146.5261 15.46171189 77839","2023-001CR","55096","6806.076","93.133","435.108","420.773","0"
"GENERATED VIA SPACETRACK.ORG API","18 SPCS","55096","SPACEBEE-161","PAYLOAD","U","23001CR","2024-05-27 03:39:52","426368","15.46171189","0.0010531","97.42","214.0516","213.5322","146.5261","0","999","7783","0.001351","0.00066804","0","4329170","0 SPACEBEE-161","1 55096U 23001CR  24148.15269012  .00066804  00000-0  13510-2 0  9992","2 55096  97.4200 214.0516 0010531 213.5322 146.5261 15.46171189 77839","2023-001CR","55096","6806.076","93.133","435.108","420.773","0"
"GENERATED VIA SPACETRACK.ORG API","18 SPCS","55096","SPACEBEE-161","PAYLOAD","U","23001CR","2024-05-27 17:38:36","275712","15.46236958","0.001041","97.4196","214.6484","212.2194","147.8421","0","999","7792","0.0011111","0.00054965","0","4329197","0 SPACEBEE-161","1 55096U 23001CR  24148.73514208  .00054965  00000-0  11111-2 0  9996","2 55096  97.4196 214.6484 0010410 212.2194 147.8421 15.46236958 77920","2023-001CR","55096","6805.883","93.129","434.833","420.663","0"
"GENERATED VIA SPACETRACK.ORG API","18 SPCS","55096","SPACEBEE-161","PAYLOAD","U","23001CR","2024-05-27 17:38:36","275712","15.46236958","0.001041","97.4196","214.6484","212.2194","147.8421","0","999","7792","0.0011111","0.00054965","0","4329288","0 SPACEBEE-161","1 55096U 23001CR  24148.73514208  .00054965  00000-0  11111-2 0  9996","2 55096  97.4196 214.6484 0010410 212.2194 147.8421 15.46236958 77920","2023-001CR","55096","6805.883","93.129","434.833","420.663","0"
"GENERATED VIA SPACETRACK.ORG API","18 SPCS","55096","SPACEBEE-161","PAYLOAD","U","23001CR","2024-05-28 04:30:55","328832","15.46300276","0.0010519","97.4197","215.112","210.5885","149.4752","0","999","7799","0.0012309","0.00061083","0","4329776","0 SPACEBEE-161","1 55096U 23001CR  24149.18814038  .00061083  00000-0  12309-2 0  9999","2 55096  97.4197 215.1120 0010519 210.5885 149.4752 15.46300276 77999","2023-001CR","55096","6805.697","93.126","434.721","420.403","0"
"GENERATED VIA SPACETRACK.ORG API","18 SPCS","55096","SPACEBEE-161","PAYLOAD","U","23001CR","2024-05-28 04:30:55","328832","15.46300276","0.0010519","97.4197","215.112","210.5885","149.4752","0","999","7799","0.0012309","0.00061083","0","4329851","0 SPACEBEE-161","1 55096U 23001CR  24149.18814038  .00061083  00000-0  12309-2 0  9999","2 55096  97.4197 215.1120 0010519 210.5885 149.4752 15.46300276 77999","2023-001CR","55096","6805.697","93.126","434.721","420.403","0"
"GENERATED VIA SPACETRACK.ORG API","18 SPCS","55096","SPACEBEE-161","PAYLOAD","U","23001CR","2024-05-28 16:56:24","76608","15.46354005","0.0010531","97.4195","215.6425","208.5106","151.5568","0","999","7807","0.0010425","0.00051754","0","4330098","0 SPACEBEE-161","1 55096U 23001CR  24149.70583422  .00051754  00000-0  10425-2 0  9998","2 55096  97.4195 215.6425 0010531 208.5106 151.5568 15.46354005 78075","2023-001CR","55096","6805.539","93.122","434.571","420.238","0"
"GENERATED VIA SPACETRACK.ORG API","18 SPCS","55096","SPACEBEE-161","PAYLOAD","U","23001CR","2024-05-29 03:48:40","292352","15.46409055","0.0010669","97.4195","216.1058","206.8113","153.2586","0","999","7814","0.0010372","0.0005159","0","4330636","0 SPACEBEE-161","1 55096U 23001CR  24150.15879968  .00051590  00000-0  10372-2 0  9991","2 55096  97.4195 216.1058 0010669 206.8113 153.2586 15.46409055 78147","2023-001CR","55096","6805.378","93.119","434.504","419.982","0"
"GENERATED VIA SPACETRACK.ORG API","18 SPCS","55096","SPACEBEE-161","PAYLOAD","U","23001CR","2024-05-29 03:48:40","292352","15.46409055","0.0010669","97.4195","216.1058","206.8113","153.2586","0","999","7814","0.0010372","0.0005159","0","4330703","0 SPACEBEE-161","1 55096U 23001CR  24150.15879968  .00051590  00000-0  10372-2 0  9991","2 55096  97.4195 216.1058 0010669 206.8113 153.2586 15.46409055 78147","2023-001CR","55096","6805.378","93.119","434.504","419.982","0"
"GENERATED VIA SPACETRACK.ORG API","18 SPCS","55096","SPACEBEE-161","PAYLOAD","U","23001CR","2024-05-29 17:47:16","471104","15.46473495","0.001061","97.4194","216.7024","205.4199","154.653","0","999","7823","0.0011569","0.00057725","0","4331016","0 SPACEBEE-161","1 55096U 23001CR  24150.74116286  .00057725  00000-0  11569-2 0  9998","2 55096  97.4194 216.7024 0010610 205.4199 154.6530 15.46473495 78233","2023-001CR","55096","6805.189","93.115","434.274","419.834","0"
"GENERATED VIA SPACETRACK.ORG API","18 SPCS","55096","SPACEBEE-161","PAYLOAD","U","23001CR","2024-05-30 03:06:19","265760","15.46525011","0.0010703","97.4196","217.0996","204.097","155.978","0","999","7829","0.0012253","0.00061281","0","4331227","0 SPACEBEE-161","1 55096U 23001CR  24151.12938965  .00061281  00000-0  12253-2 0  9990","2 55096  97.4196 217.0996 0010703 204.0970 155.9780 15.46525011 78291","2023-001CR","55096","6805.038","93.112","434.186","419.619","0"
"GENERATED VIA SPACETRACK.ORG API","18 SPCS","55096","SPACEBEE-161","PAYLOAD","U","23001CR","2024-05-30 03:06:19","265760","15.46525011","0.0010703","97.4196","217.0996","204.097","155.978","0","999","7829","0.0012253","0.00061281","0","4331646","0 SPACEBEE-161","1 55096U 23001CR  24151.12938965  .00061281  00000-0  12253-2 0  9990","2 55096  97.4196 217.0996 0010703 204.0970 155.9780 15.46525011 78291","2023-001CR","55096","6805.038","93.112","434.186","419.619","0"
"GENERATED VIA SPACETRACK.ORG API","18 SPCS","55096","SPACEBEE-161","PAYLOAD","U","23001CR","2024-05-30 17:04:51","596256","15.46594196","0.0010571","97.4196","217.6964","202.5134","157.5653","0","999","7838","0.001294","0.00064903","0","4331912","0 SPACEBEE-161","1 55096U 23001CR  24151.71170829  .00064903  00000-0  12940-2 0  9999","2 55096  97.4196 217.6964 0010571 202.5134 157.5653 15.46594196 78387","2023-001CR","55096","6804.835","93.108","433.893","419.506","0"
"GENERATED VIA SPACETRACK.ORG API","18 SPCS","55096","SPACEBEE-161","PAYLOAD","U","23001CR","2024-05-31 03:57:01","720800","15.46659623","0.0010612","97.4199","218.1598","201.1837","158.8974","0","999","7845","0.0015547","0.00078306","0","4332118","0 SPACEBEE-161","1 55096U 23001CR  24152.16460325  .00078306  00000-0  15547-2 0  9990","2 55096  97.4199 218.1598 0010612 201.1837 158.8974 15.46659623 78455","2023-001CR","55096","6804.643","93.104","433.729","419.287","0"
"GENERATED VIA SPACETRACK.ORG API","18 SPCS","55096","SPACEBEE-161","PAYLOAD","U","23001CR","2024-05-31 03:57:01","720800","15.46659623","0.0010612","97.4199","218.1598","201.1837","158.8974","0","999","7845","0.0015547","0.00078306","0","4332540","0 SPACEBEE-161","1 55096U 23001CR  24152.16460325  .00078306  00000-0  15547-2 0  9990","2 55096  97.4199 218.1598 0010612 201.1837 158.8974 15.46659623 78455","2023-001CR","55096","6804.643","93.104","433.729","419.287","0"
"GENERATED VIA SPACETRACK.ORG API","18 SPCS","55096","SPACEBEE-161","PAYLOAD","U","23001CR","2024-05-31 21:01:48","559872","15.46756329","0.0010553","97.4203","218.8892","199.6609","160.4235","0","999","7856","0.0013262","0.00066908","0","4333223","0 SPACEBEE-161","1 55096U 23001CR  24152.87625648  .00066908  00000-0  13262-2 0  9996","2 55096  97.4203 218.8892 0010553 199.6609 160.4235 15.46756329 78569","2023-001CR","55096","6804.359","93.098","433.405","419.044","0"
"GENERATED VIA SPACETRACK.ORG API","18 SPCS","55096","SPACEBEE-161","PAYLOAD","U","23001CR","2024-06-01 03:14:26","483136","15.46794315","0.001058","97.4204","219.1542","198.8694","161.2165","0","999","7860","0.0014278","0.00072184","0","4333125","0 SPACEBEE-161","1 55096U 23001CR  24153.13502874  .00072184  00000-0  14278-2 0  9992","2 55096  97.4204 219.1542 0010580 198.8694 161.2165 15.46794315 78604","2023-001CR","55096","6804.248","93.096","433.312","418.914","0"
"GENERATED VIA SPACETRACK.ORG API","18 SPCS","55096","SPACEBEE-161","PAYLOAD","U","23001CR","2024-06-01 03:14:26","483136","15.46794315","0.001058","97.4204","219.1542","198.8694","161.2165","0","999","7860","0.0014278","0.00072184","0","4333553","0 SPACEBEE-161","1 55096U 23001CR  24153.13502874  .00072184  00000-0  14278-2 0  9992","2 55096  97.4204 219.1542 0010580 198.8694 161.2165 15.46794315 78604","2023-001CR","55096","6804.248","93.096","433.312","418.914","0"
"GENERATED VIA SPACETRACK.ORG API","18 SPCS","55096","SPACEBEE-161","PAYLOAD","U","23001CR","2024-06-02 04:04:53","82912","15.46934952","0.0010536","97.4203","220.2148","195.4078","164.6853","0","999","7876","0.0014814","0.00075289","0","4334034","0 SPACEBEE-161","1 55096U 23001CR  24154.17005883  .00075289  00000-0  14814-2 0  9990","2 55096  97.4203 220.2148 0010536 195.4078 164.6853 15.46934952 78769","2023-001CR","55096","6803.836","93.087","432.869","418.532","0"
